
# Worst residual: 27.75 km
# MJD 58710.000000 (2019 Aug 15  0:00)
2010-050B = RV223A9 = Chang'e 2 booster
1 99999U 10050B   19227.49919926  .00000000  00000-0  00000-0 2  6451
2 99999 042.9129 358.3501 9197044 330.7507 234.7426 00.03022146    04

# Worst residual: 27.50 km
# MJD 58711.000000 (2019 Aug 16  0:00)
2010-050B = RV223A9 = Chang'e 2 booster
1 99999U 10050B   19228.49919926  .00000000  00000-0  00000-0 2  6452
2 99999 043.3410 358.0910 9208236 331.1819 244.1145 00.03043475    01

# Worst residual: 29.11 km
# MJD 58712.000000 (2019 Aug 17  0:00)
2010-050B = RV223A9 = Chang'e 2 booster
1 99999U 10050B   19229.49919926  .00000000  00000-0  00000-0 2  6453
2 99999 043.6774 357.9040 9214204 331.5392 253.6514 00.03066418    08

# Worst residual: 28.87 km
# MJD 58713.000000 (2019 Aug 18  0:00)
2010-050B = RV223A9 = Chang'e 2 booster
1 99999U 10050B   19230.49919926  .00000000  00000-0  00000-0 2  6455
2 99999 043.9509 357.7650 9217178 331.8458 263.3766 00.03091364    06

# Worst residual: 27.90 km
# MJD 58714.000000 (2019 Aug 19  0:00)
2010-050B = RV223A9 = Chang'e 2 booster
1 99999U 10050B   19231.49919926  .00000000  00000-0  00000-0 2  6456
2 99999 044.1499 357.6735 9216979 332.0930 273.3292 00.03117719    04

# Worst residual: 26.15 km
# MJD 58715.000000 (2019 Aug 20  0:00)
2010-050B = RV223A9 = Chang'e 2 booster
1 99999U 10050B   19232.49919926  .00000000  00000-0  00000-0 2  6457
2 99999 044.2780 357.6209 9214139 332.2827 283.5383 00.03144927    02

# Worst residual: 23.55 km
# MJD 58716.000000 (2019 Aug 21  0:00)
2010-050B = RV223A9 = Chang'e 2 booster
1 99999U 10050B   19233.49919926  .00000000  00000-0  00000-0 2  6458
2 99999 044.3428 357.5977 9209289 332.4181 294.0268 00.03172187    06

# Worst residual: 20.00 km
# MJD 58717.000000 (2019 Aug 22  0:00)
2010-050B = RV223A9 = Chang'e 2 booster
1 99999U 10050B   19234.49919926  .00000000  00000-0  00000-0 2  6459
2 99999 044.3555 357.5937 9203188 332.5041 304.8085 00.03198350    08

# Worst residual: 15.37 km
# MJD 58718.000000 (2019 Aug 23  0:00)
2010-050B = RV223A9 = Chang'e 2 booster
1 99999U 10050B   19235.49919926  .00000000  00000-0  00000-0 2  6450
2 99999 044.3312 357.5987 9196766 332.5473 315.8850 00.03221746    04

# Worst residual: 9.60 km
# MJD 58719.000000 (2019 Aug 24  0:00)
2010-050B = RV223A9 = Chang'e 2 booster
1 99999U 10050B   19236.49919926  .00000000  00000-0  00000-0 2  6451
2 99999 044.2883 357.6037 9191185 332.5575 327.2382 00.03239955    04

# Worst residual: 2.84 km
# MJD 58720.000000 (2019 Aug 25  0:00)
2010-050B = RV223A9 = Chang'e 2 booster
1 99999U 10050B   19237.49919926  .00000000  00000-0  00000-0 2  6452
2 99999 044.2473 357.6031 9187800 332.5484 338.8175 00.03249658    00

# Worst residual: 2.31 km
# MJD 58721.000000 (2019 Aug 26  0:00)
2010-050B = RV223A9 = Chang'e 2 booster
1 99999U 10050B   19238.49919926  .00000000  00000-0  00000-0 2  6453
2 99999 044.2249 357.5975 9187493 332.5352 350.5201 00.03247792    07

# Worst residual: 4.24 km
# MJD 58722.000000 (2019 Aug 27  0:00)
2010-050B = RV223A9 = Chang'e 2 booster
1 99999U 10050B   19239.49919926  .00000000  00000-0  00000-0 2  6454
2 99999 044.2186 357.5878 9188492 332.5248 002.2076 00.03240504    08

# Worst residual: 50.02 km
# MJD 58723.000000 (2019 Aug 28  0:00)
2010-050B = RV223A9 = Chang'e 2 booster
1 99999U 10050B   19240.49919926  .00000000  00000-0  00000-0 2  6456
2 99999 044.2517 357.3975 9195811 332.9542 013.5337 00.03161409    07

# Worst residual: 86.00 km
# MJD 58724.000000 (2019 Aug 29  0:00)
2010-050B = RV223A9 = Chang'e 2 booster
1 99999U 10050B   19241.49919926  .00000000  00000-0  00000-0 2  6457
2 99999 044.6079 356.4913 9178332 334.7569 023.9165 00.03026417    07

# Worst residual: 44.41 km
# MJD 58725.000000 (2019 Aug 30  0:00)
2010-050B = RV223A9 = Chang'e 2 booster
1 99999U 10050B   19242.49919926  .00000000  00000-0  00000-0 2  6458
2 99999 044.8805 355.9741 9123965 336.1644 034.8403 00.03007015    00

# Worst residual: 19.02 km
# MJD 58726.000000 (2019 Aug 31  0:00)
2010-050B = RV223A9 = Chang'e 2 booster
1 99999U 10050B   19243.49919926  .00000000  00000-0  00000-0 2  6459
2 99999 044.9206 355.9117 9092332 336.5284 046.1663 00.03025662    02

# Worst residual: 8.98 km
# MJD 58727.000000 (2019 Sep  1  0:00)
2010-050B = RV223A9 = Chang'e 2 booster
1 99999U 10050B   19244.49919926  .00000000  00000-0  00000-0 2  6450
2 99999 044.9753 355.8387 9078731 336.6742 057.3582 00.03034867    05

# Worst residual: 4.41 km
# MJD 58728.000000 (2019 Sep  2  0:00)
2010-050B = RV223A9 = Chang'e 2 booster
1 99999U 10050B   19245.49919926  .00000000  00000-0  00000-0 2  6451
2 99999 045.0961 355.6933 9074262 336.8158 068.3278 00.03035147    07

# Worst residual: 9.41 km
# MJD 58729.000000 (2019 Sep  3  0:00)
2010-050B = RV223A9 = Chang'e 2 booster
1 99999U 10050B   19246.49919926  .00000000  00000-0  00000-0 2  6452
2 99999 045.2803 355.4907 9074817 336.9944 079.0424 00.03029238    09

# Worst residual: 12.78 km
# MJD 58730.000000 (2019 Sep  4  0:00)
2010-050B = RV223A9 = Chang'e 2 booster
1 99999U 10050B   19247.49919926  .00000000  00000-0  00000-0 2  6453
2 99999 045.5275 355.2410 9077663 337.2276 089.4758 00.03018902    07

# Worst residual: 15.91 km
# MJD 58731.000000 (2019 Sep  5  0:00)
2010-050B = RV223A9 = Chang'e 2 booster
1 99999U 10050B   19248.49919926  .00000000  00000-0  00000-0 2  6454
2 99999 045.8094 354.9782 9081141 337.4986 099.6261 00.03005831    02

# Worst residual: 20.44 km
# MJD 58732.000000 (2019 Sep  6  0:00)
2010-050B = RV223A9 = Chang'e 2 booster
1 99999U 10050B   19249.49919926  .00000000  00000-0  00000-0 2  6455
2 99999 046.1105 354.7179 9083762 337.8002 109.4976 00.02991157    08

# Worst residual: 24.68 km
# MJD 58733.000000 (2019 Sep  7  0:00)
2010-050B = RV223A9 = Chang'e 2 booster
1 99999U 10050B   19250.49919926  .00000000  00000-0  00000-0 2  6457
2 99999 046.4116 354.4759 9084444 338.1203 119.1067 00.02975833    01

# Worst residual: 28.53 km
# MJD 58734.000000 (2019 Sep  8  0:00)
2010-050B = RV223A9 = Chang'e 2 booster
1 99999U 10050B   19251.49919926  .00000000  00000-0  00000-0 2  6458
2 99999 046.6941 354.2642 9082385 338.4470 128.4773 00.02960609    01
